KUIPER-00167            
1 65780U 25217U   25306.18777042  .00022379  00000+0  63487-3 0  9998
2 65780  51.8681 260.6980 0005137 222.4746 137.5843 15.36128719  5808
KUIPER-00168            
1 65781U 25217V   25307.83397134  .00048659  00000+0  12808-2 0  9991
2 65781  51.8730 252.2499 0003216 102.7887 257.3460 15.38065197  6065
KUIPER-00169            
1 65782U 25217W   25306.09822000  .00031616  00000+0  86150-3 0  9991
2 65782  51.8715 260.8605 0002886 173.7076 186.3948 15.37197230  5797
KUIPER-00170            
1 65783U 25217X   25307.55164531  .00032411  00000+0  90889-3 0  9990
2 65783  51.8671 254.0854 0005540 224.1709 135.8836 15.36281444  6015
KUIPER-00171            
1 65784U 25217Y   25307.83336806  .00260023  00000+0  44415-2 0  9993
2 65784  51.8651 251.9269 0005665 220.1947 294.2116 15.49826483  4705
KUIPER-00172            
1 65785U 25217Z   25307.58268734  .00042242  00000+0  11276-2 0  9990
2 65785  51.8731 253.5638 0002429 148.7067 211.4065 15.37696704  6025
KUIPER-00173            
1 65786U 25217AA  25307.58838903  .00050408  00000+0  13517-2 0  9995
2 65786  51.8710 253.5982 0002620 165.6281 194.4780 15.37476053  6021
KUIPER-00174            
1 65787U 25217AB  25307.57722809  .00058964  00000+0  15599-2 0  9999
2 65787  51.8731 253.5264 0003418 120.5102 239.6222 15.37823287  6024
